ONEWEB-0564             
1 55801U 23029F   24315.50433400  .00000066  00000+0  13147-3 0  9999
2 55801  87.9295  30.5878 0001892 115.0157 245.1173 13.20771792 84107
ONEWEB-0638             
1 55802U 23029G   24315.49354511  .00000097  00000+0  22629-3 0  9992
2 55802  87.9033  45.8291 0002350 106.8363 253.3024 13.14503074 82713
ONEWEB-0639             
1 55803U 23029H   24315.54587796  .00000140  00000+0  31721-3 0  9994
2 55803  87.9185  61.0380 0002354  71.2904 288.8484 13.19730086 81926
ONEWEB-0640             
1 55804U 23029J   24314.97023084 -.00000085  00000+0 -26500-3 0  9995
2 55804  87.9027  45.9258 0002559  98.2291 261.9129 13.14505703 82663
ONEWEB-0641             
1 55805U 23029K   24315.54112953  .00000114  00000+0  25174-3 0  9991
2 55805  87.9183  61.0170 0001721  92.0963 268.0367 13.19723202 81939
ONEWEB-0642             
1 55806U 23029L   24315.53638949  .00000061  00000+0  11887-3 0  9996
2 55806  87.9187  61.0465 0001950  69.4460 290.6881 13.19727460 81926
ONEWEB-0643             
1 55807U 23029M   24315.54904946  .00000250  00000+0  64037-3 0  9996
2 55807  87.9029  45.7898 0001438  68.9480 291.1804 13.14504762 82710
ONEWEB-0644             
1 55808U 23029N   24315.53165181  .00000081  00000+0  17011-3 0  9998
2 55808  87.9186  61.0465 0001772  80.6092 279.5241 13.19722953 81923
